{"type": "FeatureCollection", "features": [ {"type": "Feature", "properties": {"norad_id": 36011, "name": "IRIDIUM 33 DEB", "group": "iridium-33-debris", "lat": 63.55412023606406, "lon": 47.14389748534851, "alt_km": 759.9115967687576, "timestamp": "2025-12-02T15:49:07.579073+00:00", "meta": {"OBJECT_NAME": "IRIDIUM 33 DEB", "OBJECT_ID": "1997-051US", "EPOCH": "2025-11-27T22:48:02.153088", "MEAN_MOTION": 14.41259363, "ECCENTRICITY": 0.0016688, "INCLINATION": 86.3418, "RA_OF_ASC_NODE": 41.7752, "ARG_OF_PERICENTER": 268.8947, "MEAN_ANOMALY": 217.0188, "EPHEMERIS_TYPE": 0, "CLASSIFICATION_TYPE": "U", "NORAD_CAT_ID": 36011, "ELEMENT_SET_NO": 999, "REV_AT_EPOCH": 64327, "BSTAR": 0.00058853, "MEAN_MOTION_DOT": 1.923e-05, "MEAN_MOTION_DDOT": 0}, "tle": {"line1": "1 36011U 97051US  25331.95002492  .00001923  00000+0  58853-3 0  9994", "line2": "2 36011  86.3418  41.7752 0016688 268.8947 217.0188 14.41259363643279"}}, "geometry": {"type": "Point", "coordinates": [47.14389748534851, 63.55412023606406]}}, {"type": "Feature", "properties": {"norad_id": 36012, "name": "IRIDIUM 33 DEB", "group": "iridium-33-debris", "lat": 85.69593000186562, "lon": 7.321161300544943, "alt_km": 958.7798424352532, "timestamp": "2025-12-02T15:49:07.579084+00:00", "meta": {"OBJECT_NAME": "IRIDIUM 33 DEB", "OBJECT_ID": "1997-051UT", "EPOCH": "2025-11-30T09:13:21.766944", "MEAN_MOTION": 14.18317732, "ECCENTRICITY": 0.02146731, "INCLINATION": 86.4437, "RA_OF_ASC_NODE": 312.5163, "ARG_OF_PERICENTER": 303.0455, "MEAN_ANOMALY": 55.0272, "EPHEMERIS_TYPE": 0, "CLASSIFICATION_TYPE": "U", "NORAD_CAT_ID": 36012, "ELEMENT_SET_NO": 999, "REV_AT_EPOCH": 65309, "BSTAR": 0.0080758053, "MEAN_MOTION_DOT": 0.00020957, "MEAN_MOTION_DDOT": 0}, "tle": {"line1": "1 36012U 97051UT  25334.38427971  .00020957  00000+0  80758-2 0  9994", "line2": "2 36012  86.4437 312.5163 0214673 303.0455  55.0272 14.18317732653091"}}, "geometry": {"type": "Point", "coordinates": [7.321161300544943, 85.69593000186562]}}, {"type": "Feature", "properties": {"norad_id": 36028, "name": "IRIDIUM 33 DEB", "group": "iridium-33-debris", "lat": -71.01736390169651, "lon": -59.3442532774286, "alt_km": 605.1223070762353, "timestamp": "2025-12-02T15:49:07.579095+00:00", "meta": {"OBJECT_NAME": "IRIDIUM 33 DEB", "OBJECT_ID": "1997-051VK", "EPOCH": "2025-12-02T04:53:22.244352", "MEAN_MOTION": 14.94476089, "ECCENTRICITY": 0.00220956, "INCLINATION": 86.3209, "RA_OF_ASC_NODE": 311.6506, "ARG_OF_PERICENTER": 84.2868, "MEAN_ANOMALY": 276.0879, "EPHEMERIS_TYPE": 0, "CLASSIFICATION_TYPE": "U", "NORAD_CAT_ID": 36028, "ELEMENT_SET_NO": 999, "REV_AT_EPOCH": 86967, "BSTAR": 0.0026794337, "MEAN_MOTION_DOT": 0.00029149, "MEAN_MOTION_DDOT": 0}, "tle": {"line1": "1 36028U 97051VK  25336.20372968  .00029149  00000+0  26794-2 0  9991", "line2": "2 36028  86.3209 311.6506 0022095  84.2868 276.0879 14.94476089869672"}}, "geometry": {"type": "Point", "coordinates": [-59.3442532774286, -71.01736390169651]}}, {"type": "Feature", "properties": {"norad_id": 36080, "name": "IRIDIUM 33 DEB", "group": "iridium-33-debris", "lat": 80.81345106691381, "lon": 168.93475252549865, "alt_km": 729.7882763448933, "timestamp": "2025-12-02T15:49:07.579124+00:00", "meta": {"OBJECT_NAME": "IRIDIUM 33 DEB", "OBJECT_ID": "1997-051VM", "EPOCH": "2025-11-30T20:11:56.294592", "MEAN_MOTION": 14.46521856, "ECCENTRICITY": 0.0017024, "INCLINATION": 86.3209, "RA_OF_ASC_NODE": 13.1702, "ARG_OF_PERICENTER": 195.0829, "MEAN_ANOMALY": 164.9869, "EPHEMERIS_TYPE": 0, "CLASSIFICATION_TYPE": "U", "NORAD_CAT_ID": 36080, "ELEMENT_SET_NO": 999, "REV_AT_EPOCH": 47242, "BSTAR": 0.00064307245, "MEAN_MOTION_DOT": 2.338e-05, "MEAN_MOTION_DDOT": 0}, "tle": {"line1": "1 36080U 97051VM  25334.84162378  .00002338  00000+0  64307-3 0  9993", "line2": "2 36080  86.3209  13.1702 0017024 195.0829 164.9869 14.46521856472423"}}, "geometry": {"type": "Point", "coordinates": [168.93475252549865, 80.81345106691381]}}, {"type": "Feature", "properties": {"norad_id": 36083, "name": "IRIDIUM 33 DEB", "group": "iridium-33-debris", "lat": -46.04000632998809, "lon": 34.69198106500447, "alt_km": 744.9521968818435, "timestamp": "2025-12-02T15:49:07.579135+00:00", "meta": {"OBJECT_NAME": "IRIDIUM 33 DEB", "OBJECT_ID": "1997-051VQ", "EPOCH": "2025-11-30T10:46:50.880000", "MEAN_MOTION": 14.43133955, "ECCENTRICITY": 0.00245074, "INCLINATION": 86.345, "RA_OF_ASC_NODE": 39.4431, "ARG_OF_PERICENTER": 266.1752, "MEAN_ANOMALY": 93.6646, "EPHEMERIS_TYPE": 0, "CLASSIFICATION_TYPE": "U", "NORAD_CAT_ID": 36083, "ELEMENT_SET_NO": 999, "REV_AT_EPOCH": 85272, "BSTAR": 0.00060468289, "MEAN_MOTION_DOT": 2.056e-05, "MEAN_MOTION_DDOT": 0}, "tle": {"line1": "1 36083U 97051VQ  25334.44920000  .00002056  00000+0  60468-3 0  9997", "line2": "2 36083  86.3450  39.4431 0024507 266.1752  93.6646 14.43133955852725"}}, "geometry": {"type": "Point", "coordinates": [34.69198106500447, -46.04000632998809]}}, {"type": "Feature", "properties": {"norad_id": 36390, "name": "IRIDIUM 33 DEB", "group": "iridium-33-debris", "lat": 66.4130895991437, "lon": 115.4636454155042, "alt_km": 641.8891134534342, "timestamp": "2025-12-02T15:49:07.579146+00:00", "meta": {"OBJECT_NAME": "IRIDIUM 33 DEB", "OBJECT_ID": "1997-051VU", "EPOCH": "2025-11-30T04:37:26.668128", "MEAN_MOTION": 14.73329322, "ECCENTRICITY": 0.00285998, "INCLINATION": 86.289, "RA_OF_ASC_NODE": 305.1428, "ARG_OF_PERICENTER": 206.0853, "MEAN_ANOMALY": 153.8925, "EPHEMERIS_TYPE": 0, "CLASSIFICATION_TYPE": "U", "NORAD_CAT_ID": 36390, "ELEMENT_SET_NO": 999, "REV_AT_EPOCH": 66077, "BSTAR": 0.001268982, "MEAN_MOTION_DOT": 8.29e-05, "MEAN_MOTION_DDOT": 0}, "tle": {"line1": "1 36390U 97051VU  25334.19266977  .00008290  00000+0  12690-2 0  9995", "line2": "2 36390  86.2890 305.1428 0028599 206.0853 153.8925 14.73329322660771"}}, "geometry": {"type": "Point", "coordinates": [115.4636454155042, 66.4130895991437]}}, {"type": "Feature", "properties": {"norad_id": 36483, "name": "IRIDIUM 33 DEB", "group": "iridium-33-debris", "lat": 22.753257984618983, "lon": 58.3243491015047, "alt_km": 744.1432592251776, "timestamp": "2025-12-02T15:49:07.579157+00:00", "meta": {"OBJECT_NAME": "IRIDIUM 33 DEB", "OBJECT_ID": "1997-051VZ", "EPOCH": "2025-12-01T23:06:08.589024", "MEAN_MOTION": 14.45743317, "ECCENTRICITY": 0.00104053, "INCLINATION": 86.3803, "RA_OF_ASC_NODE": 57.101, "ARG_OF_PERICENTER": 156.2304, "MEAN_ANOMALY": 203.9381, "EPHEMERIS_TYPE": 0, "CLASSIFICATION_TYPE": "U", "NORAD_CAT_ID": 36483, "ELEMENT_SET_NO": 999, "REV_AT_EPOCH": 64990, "BSTAR": 0.00063754459, "MEAN_MOTION_DOT": 2.279e-05, "MEAN_MOTION_DDOT": 0}, "tle": {"line1": "1 36483U 97051VZ  25335.96259941  .00002279  00000+0  63754-3 0  9996", "line2": "2 36483  86.3803  57.1010 0010405 156.2304 203.9381 14.45743317649902"}}, "geometry": {"type": "Point", "coordinates": [58.3243491015047, 22.753257984618983]}}, {"type": "Feature", "properties": {"norad_id": 36490, "name": "IRIDIUM 33 DEB", "group": "iridium-33-debris", "lat": -82.99554592787135, "lon": -133.84272371788808, "alt_km": 653.626219136846, "timestamp": "2025-12-02T15:49:07.579167+00:00", "meta": {"OBJECT_NAME": "IRIDIUM 33 DEB", "OBJECT_ID": "1997-051WG", "EPOCH": "2025-11-30T20:19:01.149312", "MEAN_MOTION": 14.75798631, "ECCENTRICITY": 0.00055619, "INCLINATION": 86.3661, "RA_OF_ASC_NODE": 15.8259, "ARG_OF_PERICENTER": 109.7854, "MEAN_ANOMALY": 250.3965, "EPHEMERIS_TYPE": 0, "CLASSIFICATION_TYPE": "U", "NORAD_CAT_ID": 36490, "ELEMENT_SET_NO": 999, "REV_AT_EPOCH": 86309, "BSTAR": 0.0016181183, "MEAN_MOTION_DOT": 0.00011119, "MEAN_MOTION_DDOT": 0}, "tle": {"line1": "1 36490U 97051WG  25334.84654108  .00011119  00000+0  16181-2 0  9998", "line2": "2 36490  86.3661  15.8259 0005561 109.7854 250.3965 14.75798631863092"}}, "geometry": {"type": "Point", "coordinates": [-133.84272371788808, -82.99554592787135]}}, {"type": "Feature", "properties": {"norad_id": 36493, "name": "IRIDIUM 33 DEB", "group": "iridium-33-debris", "lat": -41.339569212869016, "lon": -160.6301370696483, "alt_km": 691.9559224872801, "timestamp": "2025-12-02T15:49:07.579178+00:00", "meta": {"OBJECT_NAME": "IRIDIUM 33 DEB", "OBJECT_ID": "1997-051WK", "EPOCH": "2025-11-29T09:45:52.591680", "MEAN_MOTION": 14.64969461, "ECCENTRICITY": 0.00117036, "INCLINATION": 86.359, "RA_OF_ASC_NODE": 17.6018, "ARG_OF_PERICENTER": 48.0633, "MEAN_ANOMALY": 312.1576, "EPHEMERIS_TYPE": 0, "CLASSIFICATION_TYPE": "U", "NORAD_CAT_ID": 36493, "ELEMENT_SET_NO": 999, "REV_AT_EPOCH": 74323, "BSTAR": 0.0011558423, "MEAN_MOTION_DOT": 6.216e-05, "MEAN_MOTION_DDOT": 0}, "tle": {"line1": "1 36493U 97051WK  25333.40685870  .00006216  00000+0  11558-2 0  9997", "line2": "2 36493  86.3590  17.6018 0011703  48.0633 312.1576 14.64969461743231"}}, "geometry": {"type": "Point", "coordinates": [-160.6301370696483, -41.339569212869016]}}, {"type": "Feature", "properties": {"norad_id": 37548, "name": "IRIDIUM 33 DEB", "group": "iridium-33-debris", "lat": -11.999377483818524, "lon": -131.4692303908056, "alt_km": 711.6234053487224, "timestamp": "2025-12-02T15:49:07.579188+00:00", "meta": {"OBJECT_NAME": "IRIDIUM 33 DEB", "OBJECT_ID": "1997-051XH", "EPOCH": "2025-11-29T22:23:36.250944", "MEAN_MOTION": 14.5113469, "ECCENTRICITY": 0.00243457, "INCLINATION": 86.3524, "RA_OF_ASC_NODE": 48.9393, "ARG_OF_PERICENTER": 232.6782, "MEAN_ANOMALY": 127.2204, "EPHEMERIS_TYPE": 0, "CLASSIFICATION_TYPE": "U", "NORAD_CAT_ID": 37548, "ELEMENT_SET_NO": 999, "REV_AT_EPOCH": 65346, "BSTAR": 0.0012745087, "MEAN_MOTION_DOT": 5.093e-05, "MEAN_MOTION_DDOT": 0}, "tle": {"line1": "1 37548U 97051XH  25333.93305846  .00005093  00000+0  12745-2 0  9990", "line2": "2 37548  86.3524  48.9393 0024345 232.6782 127.2204 14.51134690653467"}}, "geometry": {"type": "Point", "coordinates": [-131.4692303908056, -11.999377483818524]}}]}